#aV2015  6 20  0  0  0.00000000     288 DD+AD WGS84 FIT  NGA
## 1849 518400.00000000   300.00000000 57193 0.0000000000000
+   31     1  2  3  4  5  6  7  9 10 11 12 13 14 15 16 17 18
+         19 20 21 22 23 24 25 26 27 28 29 30 31 32  0  0  0
+          0  0  0  0  0  0  0  0  0  0  0  0  0  0  0  0  0
+          0  0  0  0  0  0  0  0  0  0  0  0  0  0  0  0  0
+          0  0  0  0  0  0  0  0  0  0  0  0  0  0  0  0  0
++         2  2  2  2  2  2  2  2  2  2  2  2  2  2  2  2  2
++         2  2  2  2  2  2  2  2  2  2  2  2  2  2  0  0  0
++         0  0  0  0  0  0  0  0  0  0  0  0  0  0  0  0  0
++         0  0  0  0  0  0  0  0  0  0  0  0  0  0  0  0  0
++         0  0  0  0  0  0  0  0  0  0  0  0  0  0  0  0  0
%c cc cc ccc ccc cccc cccc cccc cccc ccccc ccccc ccccc ccccc
%c cc cc ccc ccc cccc cccc cccc cccc ccccc ccccc ccccc ccccc
%f  0.0000000  0.000000000  0.00000000000  0.000000000000000
%f  0.0000000  0.000000000  0.00000000000  0.000000000000000
%i    0    0    0    0      0      0      0      0         0
%i    0    0    0    0      0      0      0      0         0
/*      NGA, ST. LOUIS,MO.                                  
/*   EPHEMERIS COMPUTED FROM  1 DAYS OF DATA                
/*   EPOCHA SMOOTHER                                       
/* CCCCCCCCCCCCCCCCCCCCCCCCCCCCCCCCCCCCCCCCCCCCCCCCCCCCCCCCC
*  2015  6 20 13 40  0.00000000
P  1 -20358.121166 -13646.620284 -10531.958107     -4.017805                    
V  1  13327.046781   1565.186490 -27740.498921      0.005295                    
P  2   -615.398675  16051.595224  21560.423772    573.271152                    
V  2 -25777.666352  -6345.606032   3613.846659      0.023596                    
P  3 -13575.604149 -19322.570423  12138.081190    353.428906                    
V  3  -1368.895292 -15534.283131 -26325.578886      0.066796                    
P  4 -12240.963834 -16436.370303 -17363.669033    -20.409748                    
V  4  21114.459678   3810.789678 -18584.460675     -0.021846                    
P  5   1851.686195  25614.828198   6325.210242   -227.210929                    
V  5  -5229.367216  -7078.792569  30149.167434      0.044471                    
P  6 -16028.112587   9233.256042  19060.687779    188.830232                    
V  6 -22896.997774  -7937.673655 -15414.545910      0.086165                    
P  7 -25901.766937  -6013.889579  -2972.358438    469.808854                    
V  7  -3024.643986  -3243.911949  31419.739766      0.023082                    
P  9 -19256.230746    773.899253  18280.537610   -172.446443                    
V  9  15559.207599 -17316.883168  17096.166496     -0.040568                    
P 10 -11418.086217  13254.713167  19474.630519   -179.597708                    
V 10  -7632.314077 -24674.301419  12497.843915     -0.013612                    
P 11 -16587.284845 -12642.319933 -17047.909804   -586.243600                    
V 11  20641.004396  -4007.300353 -17546.569228     -0.025606                    
P 12  11008.444079  22155.057476   9854.489679    303.078194                    
V 12    919.065047  12621.972878 -28886.070702      0.032378                    
P 13  -7587.660082  19765.244814 -16252.649334   -125.067677                    
V 13 -17003.212667  11188.917294  21612.849392     -0.034040                    
P 14  21670.951492 -14724.846728  -3554.480048     54.675986                    
V 14  -1968.279014   5206.151428 -31561.958352     -0.027390                    
P 15   5551.410522  16125.361322 -20381.640222   -256.024432                    
V 15 -18637.893796  17968.616887   9499.911439     -0.021210                    
P 16    -91.119552 -25469.930827   6725.521601   -116.956475                    
V 16   3615.368833   8200.095289  31096.970763      0.039556                    
P 17 -21088.216810  15544.455136  -3340.919528   -176.735796                    
V 17   1748.385568  -5013.351561 -31784.202937     -0.016571                    
P 18  16314.858077   1208.475205 -20461.592644    410.873512                    
V 18   6409.765831  26481.315272   6223.055362      0.030260                    
P 19  -1550.423960 -16801.037878 -20591.458952   -513.851476                    
V 19  20848.931199 -15231.971686  11421.944505     -0.010086                    
P 20  12845.894280  22178.706443  -7043.578565    331.378889                    
V 20   -802.643190   9496.374812  29253.695955      0.035587                    
P 21  26026.220941   3860.908391  -4106.066905   -456.925981                    
V 21   4954.300554   4835.601872  30354.857872     -0.032987                    
P 22  12047.994640 -12676.253938 -19708.546152    362.969164                    
V 22   8175.203217  24457.509443 -10781.394955      0.039528                    
P 23 -12435.362853  -9560.997140  21611.310107   -116.030564                    
V 23  19539.647850 -18775.378245   2518.969579     -0.023738                    
P 24  18334.260558  14416.765417 -12879.345931      0.007735                    
V 24 -16304.116418  -1970.015688 -25343.914467     -0.006010                    
P 25  15571.002975  10817.211637  18568.327216     -3.942743                    
V 25   4586.121596  23263.894027 -17143.831795     -0.041965                    
P 26   6076.063739 -20608.360171  15600.714954     -0.261707                    
V 26   6763.362118  18749.721473  22123.230629     -0.027386                    
P 27   8551.709641 -21193.354258 -13453.463742     -1.500676                    
V 27  13739.998036 -10367.409191  25218.908436      0.027599                    
P 28 -12929.600151   7527.833305 -21318.035618    448.139698                    
V 28  -5377.458223 -27982.287706  -6517.782495      0.026187                    
P 29  18021.178095   1871.695377  19424.084016    617.768090                    
V 29 -17863.897206  16953.419660  15001.963126      0.022335                    
P 30 -22988.804294   1515.633333 -13291.133182    -40.304114                    
V 30 -15002.343567  -7992.308474  24985.526070      0.069168                    
P 31  13357.732273 -10409.230100  20672.895462    312.359588                    
V 31  24379.429828   8562.532229 -11187.634988     -0.011820                    
P 32  -4616.746815 -26456.479341    409.253569   -120.592136                    
V 32   2679.634837   -983.730937 -31076.637370      0.097135                    
EOF
